{"type": "FeatureCollection", "features": [ {"type": "Feature", "properties": {"norad_id": 37216, "name": "COSMO-SKYMED 4", "group": "resource", "lat": 13.117701483228895, "lon": -6.429418647532059, "alt_km": 623.6449446525385, "timestamp": "2025-12-16T10:53:45.119657+00:00", "meta": {"OBJECT_NAME": "COSMO-SKYMED 4", "OBJECT_ID": "2010-060A", "EPOCH": "2025-12-15T22:48:17.164224", "MEAN_MOTION": 14.82151449, "ECCENTRICITY": 0.00014167, "INCLINATION": 97.8806, "RA_OF_ASC_NODE": 171.2249, "ARG_OF_PERICENTER": 81.6368, "MEAN_ANOMALY": 278.5006, "EPHEMERIS_TYPE": 0, "CLASSIFICATION_TYPE": "U", "NORAD_CAT_ID": 37216, "ELEMENT_SET_NO": 999, "REV_AT_EPOCH": 81742, "BSTAR": 0.00013900996, "MEAN_MOTION_DOT": 1.055e-05, "MEAN_MOTION_DDOT": 0}, "tle": {"line1": "1 37216U 10060A   25349.95019866  .00001055  00000+0  13901-3 0  9990", "line2": "2 37216  97.8806 171.2249 0001416  81.6368 278.5006 14.82151449817428"}}, "geometry": {"type": "Point", "coordinates": [-6.429418647532059, 13.117701483228895]}}, {"type": "Feature", "properties": {"norad_id": 37387, "name": "RESOURCESAT-2", "group": "resource", "lat": 42.570728983549735, "lon": 45.8200709054977, "alt_km": 811.9545639832668, "timestamp": "2025-12-16T10:53:45.119668+00:00", "meta": {"OBJECT_NAME": "RESOURCESAT-2", "OBJECT_ID": "2011-015A", "EPOCH": "2025-12-15T21:10:48.230688", "MEAN_MOTION": 14.21598544, "ECCENTRICITY": 0.00062913, "INCLINATION": 98.7875, "RA_OF_ASC_NODE": 53.4202, "ARG_OF_PERICENTER": 34.3241, "MEAN_ANOMALY": 325.8341, "EPHEMERIS_TYPE": 0, "CLASSIFICATION_TYPE": "U", "NORAD_CAT_ID": 37387, "ELEMENT_SET_NO": 999, "REV_AT_EPOCH": 76013, "BSTAR": 8.3986492e-05, "MEAN_MOTION_DOT": 1.4e-06, "MEAN_MOTION_DDOT": 0}, "tle": {"line1": "1 37387U 11015A   25349.88250267  .00000140  00000+0  83986-4 0  9999", "line2": "2 37387  98.7875  53.4202 0006291  34.3241 325.8341 14.21598544760131"}}, "geometry": {"type": "Point", "coordinates": [45.8200709054977, 42.570728983549735]}}, {"type": "Feature", "properties": {"norad_id": 37781, "name": "HAIYANG-2A", "group": "resource", "lat": -59.00136096420214, "lon": 155.4377072085965, "alt_km": 976.23059635343, "timestamp": "2025-12-16T10:53:45.119679+00:00", "meta": {"OBJECT_NAME": "HAIYANG-2A", "OBJECT_ID": "2011-043A", "EPOCH": "2025-12-15T23:17:06.677952", "MEAN_MOTION": 13.78835948, "ECCENTRICITY": 0.00016556, "INCLINATION": 99.3381, "RA_OF_ASC_NODE": 350.8552, "ARG_OF_PERICENTER": 79.1424, "MEAN_ANOMALY": 280.9914, "EPHEMERIS_TYPE": 0, "CLASSIFICATION_TYPE": "U", "NORAD_CAT_ID": 37781, "ELEMENT_SET_NO": 999, "REV_AT_EPOCH": 72143, "BSTAR": 0.00012907442, "MEAN_MOTION_DOT": 8.7e-07, "MEAN_MOTION_DDOT": 0}, "tle": {"line1": "1 37781U 11043A   25349.97021618  .00000087  00000+0  12907-3 0  9998", "line2": "2 37781  99.3381 350.8552 0001655  79.1424 280.9914 13.78835948721439"}}, "geometry": {"type": "Point", "coordinates": [155.4377072085965, -59.00136096420214]}}, {"type": "Feature", "properties": {"norad_id": 37791, "name": "RASAT", "group": "resource", "lat": 71.90451934062169, "lon": -74.62806501603374, "alt_km": 651.4109623547138, "timestamp": "2025-12-16T10:53:45.119689+00:00", "meta": {"OBJECT_NAME": "RASAT", "OBJECT_ID": "2011-044D", "EPOCH": "2025-12-15T23:28:57.540000", "MEAN_MOTION": 14.67914473, "ECCENTRICITY": 0.00217869, "INCLINATION": 98.0646, "RA_OF_ASC_NODE": 79.1877, "ARG_OF_PERICENTER": 55.3342, "MEAN_ANOMALY": 59.1513, "EPHEMERIS_TYPE": 0, "CLASSIFICATION_TYPE": "U", "NORAD_CAT_ID": 37791, "ELEMENT_SET_NO": 999, "REV_AT_EPOCH": 76630, "BSTAR": 9.0940698e-05, "MEAN_MOTION_DOT": 4.73e-06, "MEAN_MOTION_DDOT": 0}, "tle": {"line1": "1 37791U 11044D   25349.97844375  .00000473  00000+0  90941-4 0  9997", "line2": "2 37791  98.0646  79.1877 0021786  55.3342  59.1513 14.67914473766309"}}, "geometry": {"type": "Point", "coordinates": [-74.62806501603374, 71.90451934062169]}}, {"type": "Feature", "properties": {"norad_id": 37841, "name": "SRMSAT", "group": "resource", "lat": -19.956542487522263, "lon": -5.652761609450844, "alt_km": 853.3840213374888, "timestamp": "2025-12-16T10:53:45.119700+00:00", "meta": {"OBJECT_NAME": "SRMSAT", "OBJECT_ID": "2011-058D", "EPOCH": "2025-12-15T15:36:48.790080", "MEAN_MOTION": 14.11512425, "ECCENTRICITY": 0.00118302, "INCLINATION": 19.9717, "RA_OF_ASC_NODE": 90.3334, "ARG_OF_PERICENTER": 345.5596, "MEAN_ANOMALY": 152.0986, "EPHEMERIS_TYPE": 0, "CLASSIFICATION_TYPE": "U", "NORAD_CAT_ID": 37841, "ELEMENT_SET_NO": 999, "REV_AT_EPOCH": 73185, "BSTAR": 8.6862486e-05, "MEAN_MOTION_DOT": 4.25e-06, "MEAN_MOTION_DDOT": 0}, "tle": {"line1": "1 37841U 11058D   25349.65056470  .00000425  00000+0  86862-4 0  9998", "line2": "2 37841  19.9717  90.3334 0011830 345.5596 152.0986 14.11512425731852"}}, "geometry": {"type": "Point", "coordinates": [-5.652761609450844, -19.956542487522263]}}, {"type": "Feature", "properties": {"norad_id": 38012, "name": "PLEIADES 1A", "group": "resource", "lat": 42.997595781579044, "lon": -109.12523917231437, "alt_km": 693.8941035417356, "timestamp": "2025-12-16T10:53:45.119710+00:00", "meta": {"OBJECT_NAME": "PLEIADES 1A", "OBJECT_ID": "2011-076F", "EPOCH": "2025-12-15T23:13:52.423104", "MEAN_MOTION": 14.58564947, "ECCENTRICITY": 0.00012266, "INCLINATION": 98.182, "RA_OF_ASC_NODE": 62.6865, "ARG_OF_PERICENTER": 71.8729, "MEAN_ANOMALY": 33.9509, "EPHEMERIS_TYPE": 0, "CLASSIFICATION_TYPE": "U", "NORAD_CAT_ID": 38012, "ELEMENT_SET_NO": 999, "REV_AT_EPOCH": 74528, "BSTAR": 9.4030919e-05, "MEAN_MOTION_DOT": 3.92e-06, "MEAN_MOTION_DDOT": 0}, "tle": {"line1": "1 38012U 11076F   25349.96796786  .00000392  00000+0  94031-4 0  9994", "line2": "2 38012  98.1820  62.6865 0001226  71.8729  33.9509 14.58564947745280"}}, "geometry": {"type": "Point", "coordinates": [-109.12523917231437, 42.997595781579044]}}, {"type": "Feature", "properties": {"norad_id": 38038, "name": "ZIYUAN 1-02C (ZY 1-02C)", "group": "resource", "lat": 49.35519862942628, "lon": -113.6492948960988, "alt_km": 755.3376380501286, "timestamp": "2025-12-16T10:53:45.119721+00:00", "meta": {"OBJECT_NAME": "ZIYUAN 1-02C (ZY 1-02C)", "OBJECT_ID": "2011-079A", "EPOCH": "2025-12-15T23:24:31.561920", "MEAN_MOTION": 14.38016443, "ECCENTRICITY": 0.00073087, "INCLINATION": 98.4332, "RA_OF_ASC_NODE": 55.9294, "ARG_OF_PERICENTER": 129.8755, "MEAN_ANOMALY": 43.5961, "EPHEMERIS_TYPE": 0, "CLASSIFICATION_TYPE": "U", "NORAD_CAT_ID": 38038, "ELEMENT_SET_NO": 999, "REV_AT_EPOCH": 73287, "BSTAR": 0.00019037417, "MEAN_MOTION_DOT": 5.33e-06, "MEAN_MOTION_DDOT": 0}, "tle": {"line1": "1 38038U 11079A   25349.97536530  .00000533  00000+0  19037-3 0  9994", "line2": "2 38038  98.4332  55.9294 0007308 129.8755  43.5961 14.38016443732871"}}, "geometry": {"type": "Point", "coordinates": [-113.6492948960988, 49.35519862942628]}}, {"type": "Feature", "properties": {"norad_id": 38046, "name": "ZIYUAN 3-1 (ZY 3-1)", "group": "resource", "lat": -51.54207782034262, "lon": -132.16683761625714, "alt_km": 368.66021126437863, "timestamp": "2025-12-16T10:53:45.119739+00:00", "meta": {"OBJECT_NAME": "ZIYUAN 3-1 (ZY 3-1)", "OBJECT_ID": "2012-001A", "EPOCH": "2025-12-15T23:11:44.626272", "MEAN_MOTION": 15.69055925, "ECCENTRICITY": 0.00015796, "INCLINATION": 97.1754, "RA_OF_ASC_NODE": 56.4608, "ARG_OF_PERICENTER": 335.425, "MEAN_ANOMALY": 24.6937, "EPHEMERIS_TYPE": 0, "CLASSIFICATION_TYPE": "U", "NORAD_CAT_ID": 38046, "ELEMENT_SET_NO": 999, "REV_AT_EPOCH": 77547, "BSTAR": 0.00051962988, "MEAN_MOTION_DOT": 0.00060184, "MEAN_MOTION_DDOT": 0}, "tle": {"line1": "1 38046U 12001A   25349.96648873  .00060184  00000+0  51963-3 0  9994", "line2": "2 38046  97.1754  56.4608 0001579 335.4250  24.6937 15.69055925775477"}}, "geometry": {"type": "Point", "coordinates": [-132.16683761625714, -51.54207782034262]}}, {"type": "Feature", "properties": {"norad_id": 38338, "name": "ARIRANG-3 (KOMPSAT-3)", "group": "resource", "lat": 73.69281439063285, "lon": -84.99296774334815, "alt_km": 681.7908395625764, "timestamp": "2025-12-16T10:53:45.119749+00:00", "meta": {"OBJECT_NAME": "ARIRANG-3 (KOMPSAT-3)", "OBJECT_ID": "2012-025B", "EPOCH": "2025-12-15T23:02:59.031744", "MEAN_MOTION": 14.61717107, "ECCENTRICITY": 0.00051489, "INCLINATION": 98.3326, "RA_OF_ASC_NODE": 304.574, "ARG_OF_PERICENTER": 327.8579, "MEAN_ANOMALY": 32.2307, "EPHEMERIS_TYPE": 0, "CLASSIFICATION_TYPE": "U", "NORAD_CAT_ID": 38338, "ELEMENT_SET_NO": 999, "REV_AT_EPOCH": 72457, "BSTAR": 0.00012217814, "MEAN_MOTION_DOT": 5.6e-06, "MEAN_MOTION_DDOT": 0}, "tle": {"line1": "1 38338U 12025B   25349.96040546  .00000560  00000+0  12218-3 0  9999", "line2": "2 38338  98.3326 304.5740 0005148 327.8579  32.2307 14.61717107724577"}}, "geometry": {"type": "Point", "coordinates": [-84.99296774334815, 73.69281439063285]}}, {"type": "Feature", "properties": {"norad_id": 38709, "name": "EXACTVIEW-1 (ADS-1B)", "group": "resource", "lat": -56.63837003699017, "lon": 112.79197762838784, "alt_km": 810.1299106565803, "timestamp": "2025-12-16T10:53:45.119760+00:00", "meta": {"OBJECT_NAME": "EXACTVIEW-1 (ADS-1B)", "OBJECT_ID": "2012-039C", "EPOCH": "2025-12-15T21:41:01.409856", "MEAN_MOTION": 14.24909318, "ECCENTRICITY": 0.00105059, "INCLINATION": 98.9638, "RA_OF_ASC_NODE": 98.3599, "ARG_OF_PERICENTER": 344.987, "MEAN_ANOMALY": 15.0995, "EPHEMERIS_TYPE": 0, "CLASSIFICATION_TYPE": "U", "NORAD_CAT_ID": 38709, "ELEMENT_SET_NO": 999, "REV_AT_EPOCH": 69660, "BSTAR": 7.5534217e-05, "MEAN_MOTION_DOT": 1.3e-06, "MEAN_MOTION_DDOT": 0}, "tle": {"line1": "1 38709U 12039C   25349.90348854  .00000130  00000+0  75534-4 0  9997", "line2": "2 38709  98.9638  98.3599 0010505 344.9870  15.0995 14.24909318696608"}}, "geometry": {"type": "Point", "coordinates": [112.79197762838784, -56.63837003699017]}}]}